{
  "type": "FeatureCollection",
  "features": [
    {
      "type": "Feature",
      "properties": {
        "norad_id": 33939,
        "name": "COSMOS 2251 DEB",
        "group": "cosmos-2251-debris",
        "lat": 7.90418378272003,
        "lon": -86.73037228842774,
        "alt_km": 570.454830485196,
        "timestamp": "2025-12-05T09:41:19.525385+00:00",
        "meta_object_name": "COSMOS 2251 DEB",
        "meta_object_id": "1993-036EU",
        "meta_epoch": "2025-12-04T08:53:55.536288",
        "meta_mean_motion": 14.98843864,
        "meta_eccentricity": 0.0003071,
        "meta_inclination": 74.0073,
        "meta_ra_of_asc_node": 97.6502,
        "meta_arg_of_pericenter": 110.2484,
        "meta_mean_anomaly": 249.9033,
        "meta_ephemeris_type": 0,
        "meta_classification_type": "U",
        "meta_norad_cat_id": 33939,
        "meta_element_set_no": 999,
        "meta_rev_at_epoch": 88627,
        "meta_bstar": 0.0084747,
        "meta_mean_motion_dot": 0.00103812,
        "meta_mean_motion_ddot": 0,
        "tle_line1": "1 33939U 93036EU  25338.37078167  .00103812  00000+0  84747-2 0  9994",
        "tle_line2": "2 33939  74.0073  97.6502 0003071 110.2484 249.9033 14.98843864886276"
      },
      "geometry": {
        "type": "Point",
        "coordinates": [
          -86.73037228842774,
          7.90418378272003
        ]
      }
    },
    {
      "type": "Feature",
      "properties": {
        "norad_id": 33940,
        "name": "COSMOS 2251 DEB",
        "group": "cosmos-2251-debris",
        "lat": -59.61115737339781,
        "lon": 128.25105401355262,
        "alt_km": 700.0572585996433,
        "timestamp": "2025-12-05T09:41:19.525395+00:00",
        "meta_object_name": "COSMOS 2251 DEB",
        "meta_object_id": "1993-036EV",
        "meta_epoch": "2025-12-04T06:48:29.393856",
        "meta_mean_motion": 14.58663589,
        "meta_eccentricity": 0.0011684,
        "meta_inclination": 74.0382,
        "meta_ra_of_asc_node": 159.5954,
        "meta_arg_of_pericenter": 238.6516,
        "meta_mean_anomaly": 298.3953,
        "meta_ephemeris_type": 0,
        "meta_classification_type": "U",
        "meta_norad_cat_id": 33940,
        "meta_element_set_no": 999,
        "meta_rev_at_epoch": 88470,
        "meta_bstar": 0.0023268,
        "meta_mean_motion_dot": 0.00010844,
        "meta_mean_motion_ddot": 0,
        "tle_line1": "1 33940U 93036EV  25338.28367354  .00010844  00000+0  23268-2 0  9998",
        "tle_line2": "2 33940  74.0382 159.5954 0011684 238.6516 298.3953 14.58663589884705"
      },
      "geometry": {
        "type": "Point",
        "coordinates": [
          128.25105401355262,
          -59.61115737339781
        ]
      }
    },
    {
      "type": "Feature",
      "properties": {
        "norad_id": 33942,
        "name": "COSMOS 2251 DEB",
        "group": "cosmos-2251-debris",
        "lat": -37.4324739425219,
        "lon": -84.31720644168684,
        "alt_km": 762.5122545671084,
        "timestamp": "2025-12-05T09:41:19.525423+00:00",
        "meta_object_name": "COSMOS 2251 DEB",
        "meta_object_id": "1993-036EX",
        "meta_epoch": "2025-12-04T14:38:12.374880",
        "meta_mean_motion": 14.37969538,
        "meta_eccentricity": 0.0019942,
        "meta_inclination": 74.0361,
        "meta_ra_of_asc_node": 289.801,
        "meta_arg_of_pericenter": 14.8872,
        "meta_mean_anomaly": 158.3993,
        "meta_ephemeris_type": 0,
        "meta_classification_type": "U",
        "meta_norad_cat_id": 33942,
        "meta_element_set_no": 999,
        "meta_rev_at_epoch": 88017,
        "meta_bstar": 0.00046709,
        "meta_mean_motion_dot": 1.389e-05,
        "meta_mean_motion_ddot": 0,
        "tle_line1": "1 33942U 93036EX  25338.60986545  .00001389  00000+0  46709-3 0  9995",
        "tle_line2": "2 33942  74.0361 289.8010 0019942  14.8872 158.3993 14.37969538880174"
      },
      "geometry": {
        "type": "Point",
        "coordinates": [
          -84.31720644168684,
          -37.4324739425219
        ]
      }
    },
    {
      "type": "Feature",
      "properties": {
        "norad_id": 33944,
        "name": "COSMOS 2251 DEB",
        "group": "cosmos-2251-debris",
        "lat": -31.988084234258128,
        "lon": 152.72033677469148,
        "alt_km": 841.671188923422,
        "timestamp": "2025-12-05T09:41:19.525433+00:00",
        "meta_object_name": "COSMOS 2251 DEB",
        "meta_object_id": "1993-036EZ",
        "meta_epoch": "2025-12-04T10:00:43.683264",
        "meta_mean_motion": 14.37316315,
        "meta_eccentricity": 0.0111938,
        "meta_inclination": 74.04,
        "meta_ra_of_asc_node": 324.2382,
        "meta_arg_of_pericenter": 66.0363,
        "meta_mean_anomaly": 84.0711,
        "meta_ephemeris_type": 0,
        "meta_classification_type": "U",
        "meta_norad_cat_id": 33944,
        "meta_element_set_no": 999,
        "meta_rev_at_epoch": 87908,
        "meta_bstar": 0.0005415,
        "meta_mean_motion_dot": 1.71e-05,
        "meta_mean_motion_ddot": 0,
        "tle_line1": "1 33944U 93036EZ  25338.41717226  .00001710  00000+0  54150-3 0  9991",
        "tle_line2": "2 33944  74.0400 324.2382 0111938  66.0363  84.0711 14.37316315879088"
      },
      "geometry": {
        "type": "Point",
        "coordinates": [
          152.72033677469148,
          -31.988084234258128
        ]
      }
    },
    {
      "type": "Feature",
      "properties": {
        "norad_id": 33945,
        "name": "COSMOS 2251 DEB",
        "group": "cosmos-2251-debris",
        "lat": 69.95460696795251,
        "lon": 11.420348380079783,
        "alt_km": 755.8150526484296,
        "timestamp": "2025-12-05T09:41:19.525444+00:00",
        "meta_object_name": "COSMOS 2251 DEB",
        "meta_object_id": "1993-036FA",
        "meta_epoch": "2025-12-04T09:53:54.700224",
        "meta_mean_motion": 14.34590373,
        "meta_eccentricity": 0.0021599,
        "meta_inclination": 74.0293,
        "meta_ra_of_asc_node": 321.5265,
        "meta_arg_of_pericenter": 50.4453,
        "meta_mean_anomaly": 309.8603,
        "meta_ephemeris_type": 0,
        "meta_classification_type": "U",
        "meta_norad_cat_id": 33945,
        "meta_element_set_no": 999,
        "meta_rev_at_epoch": 87896,
        "meta_bstar": 0.00026085,
        "meta_mean_motion_dot": 7.13e-06,
        "meta_mean_motion_ddot": 0,
        "tle_line1": "1 33945U 93036FA  25338.41243866  .00000713  00000+0  26085-3 0  9994",
        "tle_line2": "2 33945  74.0293 321.5265 0021599  50.4453 309.8603 14.34590373878968"
      },
      "geometry": {
        "type": "Point",
        "coordinates": [
          11.420348380079783,
          69.95460696795251
        ]
      }
    },
    {
      "type": "Feature",
      "properties": {
        "norad_id": 33948,
        "name": "COSMOS 2251 DEB",
        "group": "cosmos-2251-debris",
        "lat": -70.8867971977964,
        "lon": -165.70714604679745,
        "alt_km": 791.6968013906417,
        "timestamp": "2025-12-05T09:41:19.525455+00:00",
        "meta_object_name": "COSMOS 2251 DEB",
        "meta_object_id": "1993-036FD",
        "meta_epoch": "2025-12-04T00:42:29.692512",
        "meta_mean_motion": 14.35613003,
        "meta_eccentricity": 0.00223705,
        "meta_inclination": 74.0352,
        "meta_ra_of_asc_node": 321.116,
        "meta_arg_of_pericenter": 39.4809,
        "meta_mean_anomaly": 320.7968,
        "meta_ephemeris_type": 0,
        "meta_classification_type": "U",
        "meta_norad_cat_id": 33948,
        "meta_element_set_no": 999,
        "meta_rev_at_epoch": 87898,
        "meta_bstar": 0.00035496193,
        "meta_mean_motion_dot": 1e-05,
        "meta_mean_motion_ddot": 0,
        "tle_line1": "1 33948U 93036FD  25338.02951033  .00001000  00000+0  35496-3 0  9992",
        "tle_line2": "2 33948  74.0352 321.1160 0022370  39.4809 320.7968 14.35613003878982"
      },
      "geometry": {
        "type": "Point",
        "coordinates": [
          -165.70714604679745,
          -70.8867971977964
        ]
      }
    },
    {
      "type": "Feature",
      "properties": {
        "norad_id": 33971,
        "name": "COSMOS 2251 DEB",
        "group": "cosmos-2251-debris",
        "lat": -37.55412000859735,
        "lon": 100.01414734697721,
        "alt_km": 776.7083060080631,
        "timestamp": "2025-12-05T09:41:19.525465+00:00",
        "meta_object_name": "COSMOS 2251 DEB",
        "meta_object_id": "1993-036FE",
        "meta_epoch": "2025-12-04T13:27:27.897984",
        "meta_mean_motion": 14.39701116,
        "meta_eccentricity": 0.001815,
        "meta_inclination": 74.0249,
        "meta_ra_of_asc_node": 268.8483,
        "meta_arg_of_pericenter": 10.8879,
        "meta_mean_anomaly": 161.2357,
        "meta_ephemeris_type": 0,
        "meta_classification_type": "U",
        "meta_norad_cat_id": 33971,
        "meta_element_set_no": 999,
        "meta_rev_at_epoch": 88021,
        "meta_bstar": 0.0005898,
        "meta_mean_motion_dot": 1.824e-05,
        "meta_mean_motion_ddot": 0,
        "tle_line1": "1 33971U 93036FE  25338.56073956  .00001824  00000+0  58980-3 0  9993",
        "tle_line2": "2 33971  74.0249 268.8483 0018150  10.8879 161.2357 14.39701116880215"
      },
      "geometry": {
        "type": "Point",
        "coordinates": [
          100.01414734697721,
          -37.55412000859735
        ]
      }
    }
  ]
}